MEAN_MOTION;ECCENTRICITY;INCLINATION;RA_OF_ASC_NODE;ARG_OF_PERICENTER;MEAN_ANOMALY;BSTAR;MEAN_MOTION_DOT;MEAN_MOTION_DDOT;TYPE
14.35706858;0.0002003;86.3964;51.0771;90.4803;269.6623;3.2828E-5;1.15E-6;0;Iridium
14.35706991;0.0002005;86.3966;50.8434;90.7088;269.4338;3.37E-5;1.17E-6;0;Iridium
14.35707112;0.0002012;86.3966;50.6389;90.9763;269.1664;3.3835E-5;1.17E-6;0;Iridium
14.35707236;0.0002018;86.3967;50.4053;91.3542;268.7885;3.4501E-5;1.19E-6;0;Iridium
14.35707236;0.0002018;86.3967;50.4053;91.3542;268.7885;3.4501E-5;1.19E-6;0;Iridium
14.357073;0.0002025;86.3968;50.23;91.4287;268.7142;3.2626E-5;1.14E-6;0;Iridium
14.35707361;0.0002027;86.3969;49.9964;91.2907;268.8521;3.0117E-5;1.07E-6;0;Iridium
14.35707419;0.0002032;86.3969;49.8212;91.3875;268.7554;2.8246E-5;1.01E-6;0;Iridium
14.35707517;0.0002036;86.3971;49.5875;91.5783;268.5647;2.7407E-5;9.9E-7;0;Iridium
14.35707678;0.0002042;86.3973;49.1787;92.0228;268.1203;2.6083E-5;9.5E-7;0;Iridium
14.35707707;0.000205;86.3973;48.9743;92.026;268.1172;2.3071E-5;8.6E-7;0;Iridium
14.35707784;0.0002049;86.3974;48.7698;92.1609;267.9823;2.3683E-5;8.8E-7;0;Iridium
14.35707839;0.0002055;86.3975;48.5362;92.117;268.0261;2.1873E-5;8.3E-7;0;Iridium
14.35707911;0.000206;86.3976;48.3318;92.2666;267.8767;2.3144E-5;8.7E-7;0;Iridium
14.35707911;0.000206;86.3976;48.3318;92.2666;267.8767;2.3144E-5;8.7E-7;0;Iridium
14.35707981;0.0002066;86.3977;48.1273;92.3181;267.8252;2.3134E-5;8.7E-7;0;Iridium
14.3570811;0.0002072;86.3978;47.7186;92.5033;267.6401;2.3847E-5;8.9E-7;0;Iridium
14.35708184;0.000207;86.398;47.5142;92.4933;267.65;2.5389E-5;9.3E-7;0;Iridium
14.35708274;0.0002078;86.398;47.3098;92.5553;267.5881;2.6708E-5;9.7E-7;0;Iridium
14.3570835;0.0002083;86.3981;47.0762;92.5686;267.5749;2.8071E-5;1.01E-6;0;Iridium
14.3570835;0.0002083;86.3981;47.0762;92.5686;267.5749;2.8071E-5;1.01E-6;0;Iridium
14.35708433;0.0002091;86.3982;46.8718;92.6825;267.4611;2.9056E-5;1.04E-6;0;Iridium
14.35708477;0.00021;86.3983;46.6674;92.3908;267.7529;2.8856E-5;1.03E-6;0;Iridium
14.35708528;0.0002107;86.3984;46.4631;92.2324;267.9114;2.8043E-5;1.01E-6;0;Iridium
14.35708591;0.0002106;86.3985;46.2588;92.2003;267.9435;2.8411E-5;1.02E-6;0;Iridium
14.35708658;0.0002112;86.3986;46.0253;92.2464;267.8974;2.7095E-5;9.8E-7;0;Iridium
14.35708695;0.0002111;86.3987;45.8502;92.1398;268.0041;2.6506E-5;9.6E-7;0;Iridium
14.35708766;0.0002119;86.3987;45.6167;92.3511;267.7929;2.5035E-5;9.2E-7;0;Iridium
14.3570883;0.0002122;86.3988;45.4123;92.5473;267.5966;2.4902E-5;9.2E-7;0;Iridium
14.3570883;0.0002122;86.3988;45.4123;92.5473;267.5966;2.4902E-5;9.2E-7;0;Iridium
14.35708882;0.0002132;86.3989;45.208;92.4804;267.6637;2.3118E-5;8.7E-7;0;Iridium
14.35708979;0.0002133;86.399;45.0036;92.5234;267.6207;2.4033E-5;8.9E-7;0;Iridium
14.35709077;0.0002144;86.399;44.7701;92.6176;267.5266;2.3541E-5;8.8E-7;0;Iridium
14.35709142;0.0002144;86.3991;44.6241;92.498;267.6462;2.4563E-5;9.1E-7;0;Iridium
14.35709219;0.0002148;86.3992;44.3906;92.3305;267.8137;2.2827E-5;8.6E-7;0;Iridium
14.35709325;0.0002153;86.3993;44.1571;92.305;267.8393;2.3325E-5;8.7E-7;0;Iridium
14.35709325;0.0002153;86.3993;44.1571;92.305;267.8393;2.3325E-5;8.7E-7;0;Iridium
14.35709415;0.0002163;86.3994;43.9528;92.3815;267.7629;2.3192E-5;8.7E-7;0;Iridium
14.35709523;0.0002171;86.3995;43.7485;92.4671;267.6774;2.4533E-5;9.1E-7;0;Iridium
14.35709609;0.0002182;86.3996;43.5151;92.5161;267.6285;2.3788E-5;8.8E-7;0;Iridium
14.35709717;0.0002185;86.3997;43.3108;92.5635;267.5812;2.5706E-5;9.4E-7;0;Iridium
14.35709717;0.0002185;86.3997;43.3108;92.5635;267.5812;2.5706E-5;9.4E-7;0;Iridium
14.35709791;0.000219;86.3998;43.1066;92.6065;267.5382;2.5095E-5;9.2E-7;0;Iridium
14.35709868;0.0002192;86.3999;42.9023;92.5653;267.5794;2.6012E-5;9.5E-7;0;Iridium
14.35709922;0.0002202;86.4;42.6981;92.5312;267.6136;2.4906E-5;9.2E-7;0;Iridium
14.35709988;0.0002206;86.4;42.4937;92.5594;267.5855;2.5544E-5;9.4E-7;0;Iridium
14.35710027;0.0002218;86.4002;42.2603;92.5389;267.6062;2.3947E-5;8.9E-7;0;Iridium
14.35710122;0.0002227;86.4002;42.056;92.7077;267.4375;2.6159E-5;9.5E-7;0;Iridium
14.35710122;0.0002227;86.4002;42.056;92.7077;267.4375;2.6159E-5;9.5E-7;0;Iridium
14.35710182;0.0002233;86.4003;41.8518;92.5663;267.5789;2.5773E-5;9.4E-7;0;Iridium
14.35710173;0.0002235;86.4003;41.8226;92.4367;267.7085;2.5305E-5;9.3E-7;0;Iridium
14.35710378;0.0002243;86.4004;41.4434;91.9683;268.1771;2.9304E-5;1.04E-6;0;Iridium
14.35710462;0.0002247;86.4004;41.2391;91.98;268.1654;3.0357E-5;1.07E-6;0;Iridium
14.35710462;0.0002247;86.4004;41.2391;91.98;268.1654;3.0357E-5;1.07E-6;0;Iridium
14.35710583;0.0002255;86.4005;41.0349;91.9183;268.2272;3.2394E-5;1.13E-6;0;Iridium
14.35710722;0.0002259;86.4005;40.8306;91.9367;268.2088;3.5319E-5;1.22E-6;0;Iridium
14.35710848;0.0002268;86.4006;40.5972;91.9677;268.1779;3.6546E-5;1.25E-6;0;Iridium
14.35710951;0.0002265;86.4006;40.4221;91.7543;268.3913;3.772E-5;1.29E-6;0;Iridium
14.35711106;0.0002271;86.4006;40.1887;91.7325;268.4131;3.8997E-5;1.32E-6;0;Iridium
14.35711186;0.000227;86.4007;40.0137;91.6579;268.4878;3.9269E-5;1.33E-6;0;Iridium
14.35711298;0.000228;86.4008;39.7803;91.5937;268.5521;3.782E-5;1.29E-6;0;Iridium
14.35711384;0.0002286;86.4008;39.5761;91.5571;268.5887;3.6741E-5;1.26E-6;0;Iridium
14.35711384;0.0002286;86.4008;39.5761;91.5571;268.5887;3.6741E-5;1.26E-6;0;Iridium
14.35711487;0.0002294;86.4009;39.3427;91.5539;268.592;3.5093E-5;1.21E-6;0;Iridium
14.35711641;0.0002303;86.401;38.9343;91.552;268.594;3.0987E-5;1.09E-6;0;Iridium
14.35711713;0.0002304;86.4011;38.7301;91.2756;268.8705;2.9237E-5;1.04E-6;0;Iridium
14.35711713;0.0002304;86.4011;38.7301;91.2756;268.8705;2.9237E-5;1.04E-6;0;Iridium
14.35711794;0.0002311;86.4011;38.5259;91.2197;268.9264;2.7683E-5;1.0E-6;0;Iridium
14.35711856;0.0002318;86.4012;38.3218;91.0553;269.0909;2.6055E-5;9.5E-7;0;Iridium
14.35711952;0.000233;86.4012;38.0883;90.9411;269.2052;2.482E-5;9.1E-7;0;Iridium
14.3571204;0.0002332;86.4013;37.9133;91.0192;269.1272;2.5494E-5;9.3E-7;0;Iridium
14.35712154;0.000234;86.4013;37.68;90.9574;269.1891;2.552E-5;9.3E-7;0;Iridium
14.35712373;0.0002341;86.4014;37.2716;90.4803;269.6662;2.7708E-5;1.0E-6;0;Iridium
14.35712551;0.0002348;86.4014;36.8632;90.1802;269.9664;2.9127E-5;1.04E-6;0;Iridium
14.35712674;0.0002352;86.4015;36.6298;90.0962;270.0504;3.135E-5;1.1E-6;0;Iridium
14.35712674;0.0002352;86.4015;36.6298;90.0962;270.0504;3.135E-5;1.1E-6;0;Iridium
14.35712759;0.000236;86.4016;36.4256;90.1187;270.028;3.175E-5;1.11E-6;0;Iridium
14.35712823;0.000236;86.4016;36.2214;89.9781;270.1686;3.178E-5;1.12E-6;0;Iridium
14.357129;0.0002363;86.4016;36.0172;89.8321;270.3147;3.1675E-5;1.11E-6;0;Iridium
14.35712942;0.0002366;86.4016;35.8131;89.5025;270.6442;3.0924E-5;1.09E-6;0;Iridium
14.35712991;0.0002374;86.4017;35.5798;89.4288;270.7181;2.9415E-5;1.05E-6;0;Iridium
14.35713049;0.000238;86.4017;35.4047;89.2645;270.8824;2.9259E-5;1.04E-6;0;Iridium
14.35713129;0.0002383;86.4017;35.1714;89.1664;270.9806;2.8727E-5;1.03E-6;0;Iridium
14.35713205;0.0002381;86.4017;34.9964;89.0118;271.1351;2.9326E-5;1.04E-6;0;Iridium
14.35713205;0.0002381;86.4017;34.9964;89.0118;271.1351;2.9326E-5;1.04E-6;0;Iridium
14.35713351;0.0002385;86.4017;34.763;88.8408;271.3062;3.1608E-5;1.11E-6;0;Iridium
14.35713438;0.0002383;86.4016;34.588;88.7574;271.3895;3.2526E-5;1.14E-6;0;Iridium
14.35713631;0.0002384;86.4017;34.2088;88.5121;271.6349;3.3218E-5;1.16E-6;0;Iridium
14.35713646;0.0002385;86.4016;34.1505;88.4237;271.7232;3.1885E-5;1.12E-6;0;Iridium
14.35713744;0.0002391;86.4016;33.9463;88.3107;271.8364;3.1446E-5;1.11E-6;0;Iridium
14.35713867;0.0002395;86.4016;33.713;88.3307;271.8164;3.1911E-5;1.12E-6;0;Iridium
14.3571394;0.00024;86.4016;33.5671;88.3919;271.7553;3.1951E-5;1.12E-6;0;Iridium
14.35713936;0.0002409;86.4016;33.5088;88.5349;271.6123;3.0444E-5;1.08E-6;0;Iridium
14.3571404;0.0002406;86.4016;33.3046;88.2148;271.9324;3.0392E-5;1.08E-6;0;Iridium
14.357141;0.0002414;86.4017;33.0713;87.8018;272.3455;2.7814E-5;1.0E-6;0;Iridium
14.35714169;0.0002414;86.4017;32.8963;87.6666;272.4807;2.7045E-5;9.8E-7;0;Iridium
14.35714219;0.000242;86.4017;32.663;87.3551;272.7922;2.3994E-5;8.9E-7;0;Iridium
14.35714337;0.0002421;86.4017;32.2838;87.1503;272.9971;2.2449E-5;8.5E-7;0;Iridium
14.35714344;0.0002421;86.4018;32.2546;87.1316;273.0157;2.2375E-5;8.4E-7;0;Iridium
14.35714376;0.0002418;86.4017;32.0796;86.8371;273.3102;2.1213E-5;8.1E-7;0;Iridium
14.35714443;0.0002418;86.4018;31.8462;86.5798;273.5675;2.0394E-5;7.9E-7;0;Iridium
14.35714499;0.0002412;86.4018;31.6713;86.2239;273.9233;2.1013E-5;8.0E-7;0;Iridium
14.35714564;0.0002409;86.4018;31.3796;85.9947;274.1525;2.0536E-5;7.9E-7;0;Iridium
14.35714695;0.0002406;86.4018;31.2338;85.9114;274.2358;2.4722E-5;9.1E-7;0;Iridium
14.35714695;0.0002406;86.4018;31.2338;85.9114;274.2358;2.4722E-5;9.1E-7;0;Iridium
14.35714773;0.000241;86.4018;31.0296;85.9618;274.1854;2.5237E-5;9.3E-7;0;Iridium
14.35714877;0.0002404;86.4018;30.8254;85.7929;274.3542;2.7652E-5;1.0E-6;0;Iridium
14.35715024;0.0002412;86.4017;30.592;85.9643;274.1829;3.1039E-5;1.09E-6;0;Iridium
14.35715115;0.0002406;86.4016;30.4169;85.7715;274.3756;3.2824E-5;1.15E-6;0;Iridium
14.35715115;0.0002406;86.4016;30.4169;85.7715;274.3756;3.2824E-5;1.15E-6;0;Iridium
14.35715243;0.0002407;86.4016;30.1836;85.5081;274.6391;3.4238E-5;1.19E-6;0;Iridium
14.35715353;0.000241;86.4016;29.9794;85.4061;274.7411;3.5929E-5;1.24E-6;0;Iridium
14.3571544;0.0002411;86.4016;29.8044;85.1978;274.9494;3.6337E-5;1.25E-6;0;Iridium
14.35715444;0.0002411;86.4016;29.7753;85.2035;274.9437;3.5726E-5;1.23E-6;0;Iridium
14.35715518;0.0002412;86.4016;29.5711;85.1654;274.9818;3.5568E-5;1.22E-6;0;Iridium
14.35715594;0.0002419;86.4015;29.3378;85.226;274.9213;3.4165E-5;1.18E-6;0;Iridium
14.35715678;0.0002411;86.4015;29.1628;84.9034;275.2438;3.4455E-5;1.19E-6;0;Iridium
14.3571577;0.000241;86.4014;28.9295;84.7249;275.4222;3.2924E-5;1.15E-6;0;Iridium
14.35715894;0.0002407;86.4013;28.521;84.4931;275.654;2.9052E-5;1.04E-6;0;Iridium
14.35715965;0.0002408;86.4013;28.3168;84.3693;275.7778;2.7843E-5;1.0E-6;0;Iridium
